{"type":"FeatureCollection","features":[{"type":"Feature","geometry":{"type":"Polygon","coordinates":[[[-121.22656,38.75174],[-121.22631,38.74586],[-121.22398,38.74586],[-121.22319,38.74465],[-121.22329,38.74375],[-121.22622,38.74386],[-121.22584,38.73669],[-121.22314,38.73667],[-121.22299,38.73584],[-121.2236,38.73557],[-121.22362,38.73389],[-121.22588,38.73391],[-121.22586,38.7168],[-121.14662,38.71139],[-121.14283,38.71213],[-121.13451,38.71203],[-121.1332,38.71652],[-121.13289,38.72689],[-121.1336,38.7302],[-121.13329,38.73146],[-121.12835,38.73358],[-121.12139,38.74876],[-121.12128,38.75221],[-121.11921,38.75432],[-121.11769,38.75645],[-121.11748,38.75779],[-121.11926,38.76579],[-121.11858,38.76894],[-121.11722,38.77049],[-121.11167,38.7738],[-121.10989,38.776],[-121.10769,38.78012],[-121.103,38.78555],[-121.10174,38.78797],[-121.1012,38.78997],[-121.10131,38.79142],[-121.10218,38.79444],[-121.10224,38.7962],[-121.10867,38.79689],[-121.12785,38.79649],[-121.1307,38.79239],[-121.13022,38.79056],[-121.13068,38.7892],[-121.14058,38.78925],[-121.13815,38.79277],[-121.13489,38.79569],[-121.13606,38.79652],[-121.13825,38.79644],[-121.14023,38.7944],[-121.14823,38.79274],[-121.15969,38.78909],[-121.15901,38.78686],[-121.15506,38.78657],[-121.155,38.78731],[-121.14917,38.78737],[-121.14841,38.78788],[-121.14781,38.78919],[-121.14593,38.78925],[-121.14568,38.78902],[-121.14692,38.7876],[-121.14859,38.78658],[-121.1488,38.78454],[-121.14941,38.78381],[-121.15123,38.78258],[-121.15547,38.78169],[-121.15633,38.7811],[-121.15699,38.77968],[-121.15709,38.77853],[-121.15769,38.77794],[-121.15703,38.77607],[-121.15779,38.77583],[-121.15745,38.77518],[-121.15796,38.77431],[-121.15954,38.77432],[-121.15954,38.76971],[-121.16424,38.76969],[-121.1641,38.76697],[-121.1795,38.76697],[-121.17961,38.77051],[-121.18045,38.77068],[-121.18044,38.77417],[-121.18073,38.77421],[-121.19191,38.774],[-121.20693,38.7742],[-121.21168,38.77361],[-121.2205,38.76892],[-121.22188,38.76765],[-121.22286,38.76338],[-121.22429,38.75978],[-121.22426,38.75663],[-121.22656,38.75174]]]},"properties":{"ZCTA5":"95746"}},{"type":"Feature","geometry":{"type":"Polygon","coordinates":[[[-121.29384,38.72179],[-121.24235,38.71822],[-121.22586,38.7168],[-121.22588,38.73391],[-121.22362,38.73389],[-121.2236,38.73557],[-121.22299,38.73584],[-121.22314,38.73667],[-121.22584,38.73669],[-121.22622,38.74386],[-121.22329,38.74375],[-121.22319,38.74465],[-121.22398,38.74586],[-121.22631,38.74586],[-121.22653,38.752],[-121.22426,38.75663],[-121.22429,38.75978],[-121.22286,38.76338],[-121.22212,38.76719],[-121.22099,38.7686],[-121.21784,38.77038],[-121.2474,38.77034],[-121.24739,38.77083],[-121.25597,38.7655],[-121.25746,38.76439],[-121.25853,38.76306],[-121.27314,38.74078],[-121.29384,38.72179]]]},"properties":{"ZCTA5":"95661"}},{"type":"Feature","geometry":{"type":"Polygon","coordinates":[[[-121.42416,38.55413],[-121.41605,38.544],[-121.41342,38.54003],[-121.41189,38.53674],[-121.40758,38.52507],[-121.38514,38.5252],[-121.3813,38.52101],[-121.38129,38.52195],[-121.37699,38.52196],[-121.37706,38.52522],[-121.37029,38.52524],[-121.36986,38.52209],[-121.3628,38.52211],[-121.36282,38.52525],[-121.36042,38.52526],[-121.36043,38.52345],[-121.35804,38.52346],[-121.35801,38.52529],[-121.34416,38.52534],[-121.3438,38.53657],[-121.3441,38.53658],[-121.3439,38.54396],[-121.34416,38.54913],[-121.34759,38.55849],[-121.35062,38.56514],[-121.35118,38.56549],[-121.35342,38.57005],[-121.35455,38.57133],[-121.35758,38.5707],[-121.35839,38.57072],[-121.35865,38.57106],[-121.36486,38.5693],[-121.38285,38.56676],[-121.39916,38.56261],[-121.40395,38.56165],[-121.40619,38.56049],[-121.41262,38.55974],[-121.41628,38.5597],[-121.41894,38.56076],[-121.42035,38.56222],[-121.42084,38.56192],[-121.41875,38.56032],[-121.41844,38.55421],[-121.42246,38.55425],[-121.42364,38.55462],[-121.42416,38.55413]]]},"properties":{"ZCTA5":"95826"}},{"type":"Feature","geometry":{"type":"Polygon","coordinates":[[[-121.41998,38.623],[-121.41997,38.62022],[-121.41969,38.6201],[-121.41967,38.61902],[-121.41992,38.61785],[-121.41993,38.61045],[-121.41762,38.61039],[-121.41762,38.61083],[-121.37863,38.61038],[-121.37866,38.60967],[-121.3766,38.60989],[-121.37662,38.61037],[-121.37579,38.61036],[-121.37581,38.60987],[-121.3742,38.60987],[-121.3742,38.61034],[-121.36453,38.61025],[-121.36454,38.60708],[-121.3643,38.60667],[-121.35992,38.60659],[-121.35989,38.61017],[-121.35525,38.61012],[-121.35524,38.63345],[-121.35607,38.63343],[-121.35601,38.63401],[-121.35675,38.63549],[-121.35524,38.63561],[-121.3552,38.63941],[-121.35408,38.63922],[-121.35407,38.63985],[-121.3517,38.6401],[-121.35169,38.63919],[-121.35088,38.63918],[-121.35061,38.64043],[-121.34987,38.64042],[-121.34987,38.64006],[-121.34891,38.64005],[-121.34892,38.63916],[-121.34709,38.63914],[-121.34708,38.63953],[-121.34654,38.63954],[-121.34654,38.64002],[-121.347,38.64005],[-121.347,38.64088],[-121.34823,38.64109],[-121.34937,38.64334],[-121.34956,38.64256],[-121.35151,38.64168],[-121.35435,38.64168],[-121.3543,38.6429],[-121.35551,38.64302],[-121.35867,38.64213],[-121.36134,38.64192],[-121.36235,38.64099],[-121.36232,38.6405],[-121.36735,38.64067],[-121.36916,38.64123],[-121.36942,38.64175],[-121.37738,38.63927],[-121.37855,38.64113],[-121.37915,38.6407],[-121.3806,38.64052],[-121.38201,38.64102],[-121.37908,38.64376],[-121.37717,38.64612],[-121.37945,38.6455],[-121.39136,38.64372],[-121.39715,38.64168],[-121.40091,38.63916],[-121.40499,38.63724],[-121.40679,38.63724],[-121.41981,38.62523],[-121.41998,38.623]]]},"properties":{"ZCTA5":"95821"}},{"type":"Feature","geometry":{"type":"Polygon","coordinates":[[[-121.31533,38.67118],[-121.31515,38.67089],[-121.31232,38.67049],[-121.3114,38.66991],[-121.31037,38.66992],[-121.30987,38.66892],[-121.30893,38.6686],[-121.30868,38.66879],[-121.30865,38.66693],[-121.31053,38.66712],[-121.31086,38.66563],[-121.30955,38.66563],[-121.30956,38.6652],[-121.30862,38.6652],[-121.30832,38.65824],[-121.30882,38.65827],[-121.30881,38.6558],[-121.3083,38.6558],[-121.30831,38.64898],[-121.29784,38.64912],[-121.29784,38.64588],[-121.29745,38.64589],[-121.29748,38.64264],[-121.29784,38.64189],[-121.29287,38.64196],[-121.29182,38.64143],[-121.29176,38.63984],[-121.29258,38.63985],[-121.29322,38.63792],[-121.2933,38.63624],[-121.29177,38.63629],[-121.29145,38.63067],[-121.28966,38.63083],[-121.28842,38.62949],[-121.28867,38.62813],[-121.28989,38.62587],[-121.29007,38.62351],[-121.28787,38.62128],[-121.28594,38.62059],[-121.28483,38.62083],[-121.28334,38.62178],[-121.28165,38.62387],[-121.27794,38.62726],[-121.27634,38.62917],[-121.26872,38.63375],[-121.26646,38.63569],[-121.2621,38.63768],[-121.256,38.63849],[-121.24362,38.63326],[-121.2386,38.63243],[-121.23455,38.63243],[-121.22497,38.63606],[-121.21833,38.63716],[-121.20056,38.64247],[-121.19683,38.64424],[-121.19436,38.64585],[-121.19256,38.6501],[-121.20286,38.65512],[-121.20441,38.65721],[-121.20477,38.659],[-121.20557,38.66067],[-121.20674,38.6614],[-121.20771,38.66351],[-121.20869,38.66358],[-121.20809,38.66405],[-121.20839,38.66433],[-121.20938,38.66411],[-121.2099,38.6643],[-121.20997,38.6649],[-121.21051,38.66549],[-121.21158,38.66555],[-121.21215,38.66493],[-121.21228,38.66616],[-121.21489,38.66438],[-121.21861,38.66399],[-121.21869,38.66856],[-121.22099,38.66857],[-121.22099,38.6682],[-121.22228,38.66814],[-121.2223,38.66853],[-121.22502,38.66848],[-121.22501,38.66764],[-121.22569,38.66749],[-121.22981,38.66769],[-121.22981,38.66727],[-121.23117,38.66733],[-121.23124,38.66773],[-121.23219,38.66789],[-121.23502,38.66766],[-121.23499,38.6701],[-121.23736,38.67048],[-121.23735,38.67005],[-121.23907,38.67004],[-121.23907,38.66952],[-121.23966,38.66952],[-121.23966,38.67022],[-121.24138,38.6702],[-121.24136,38.6714],[-121.24196,38.67138],[-121.24196,38.67809],[-121.24433,38.67808],[-121.24433,38.67865],[-121.25488,38.67863],[-121.25509,38.68285],[-121.26239,38.68285],[-121.26217,38.66645],[-121.26319,38.66644],[-121.26304,38.66403],[-121.29768,38.66354],[-121.29786,38.66433],[-121.29924,38.66498],[-121.2994,38.67068],[-121.30874,38.67079],[-121.30915,38.67196],[-121.31109,38.67194],[-121.31135,38.67291],[-121.30976,38.67295],[-121.31004,38.67354],[-121.31255,38.67349],[-121.31263,38.67096],[-121.31533,38.67118]]]},"properties":{"ZCTA5":"95628"}},{"type":"Feature","geometry":{"type":"Polygon","coordinates":[[[-121.31806,38.8062],[-121.31881,38.80606],[-121.31346,38.80239],[-121.31478,38.80126],[-121.31407,38.80044],[-121.31378,38.79948],[-121.31377,38.79178],[-121.31192,38.79256],[-121.31192,38.79537],[-121.30826,38.7954],[-121.3082,38.77735],[-121.30774,38.77482],[-121.30688,38.77303],[-121.30918,38.77255],[-121.31286,38.77254],[-121.31284,38.76599],[-121.3123,38.76422],[-121.311,38.76257],[-121.3075,38.7626],[-121.3075,38.75918],[-121.30993,38.75917],[-121.30998,38.75543],[-121.30936,38.75269],[-121.30911,38.74382],[-121.30667,38.74394],[-121.30665,38.74127],[-121.30878,38.74089],[-121.30733,38.73878],[-121.30286,38.7358],[-121.30205,38.73446],[-121.3018,38.73319],[-121.30241,38.7314],[-121.30445,38.72855],[-121.30725,38.72585],[-121.30772,38.72397],[-121.30883,38.72279],[-121.30223,38.72239],[-121.30505,38.72244],[-121.30505,38.72207],[-121.30427,38.72199],[-121.30005,38.72224],[-121.29384,38.72179],[-121.27323,38.74067],[-121.25792,38.76388],[-121.25597,38.7655],[-121.24739,38.77083],[-121.24736,38.77396],[-121.25009,38.77394],[-121.25198,38.77185],[-121.25441,38.77288],[-121.25845,38.77389],[-121.26539,38.77707],[-121.26573,38.77752],[-121.27818,38.78371],[-121.2774,38.78416],[-121.27596,38.78437],[-121.27569,38.78465],[-121.27578,38.78527],[-121.27197,38.78377],[-121.2657,38.78363],[-121.26628,38.786],[-121.2684,38.78842],[-121.26916,38.78993],[-121.26923,38.79168],[-121.26862,38.79324],[-121.27492,38.7957],[-121.29749,38.79559],[-121.29911,38.79835],[-121.3002,38.8017],[-121.30043,38.80539],[-121.30073,38.80528],[-121.30069,38.81002],[-121.30785,38.81013],[-121.30814,38.80538],[-121.31187,38.80467],[-121.31263,38.80721],[-121.31806,38.8062]]]},"properties":{"ZCTA5":"95678"}},{"type":"Feature","geometry":{"type":"Polygon","coordinates":[[[-121.35675,38.63549],[-121.35601,38.63401],[-121.35607,38.63343],[-121.35524,38.63345],[-121.35524,38.60982],[-121.35629,38.60964],[-121.35629,38.60795],[-121.35526,38.6075],[-121.35529,38.60291],[-121.35577,38.60291],[-121.35579,38.60098],[-121.35531,38.60093],[-121.35479,38.59961],[-121.35483,38.59844],[-121.35535,38.59841],[-121.35531,38.59001],[-121.35386,38.58736],[-121.35344,38.58764],[-121.35253,38.58659],[-121.35462,38.58503],[-121.3508,38.58075],[-121.35032,38.58092],[-121.35032,38.58038],[-121.34831,38.57736],[-121.34626,38.5784],[-121.34614,38.57784],[-121.34377,38.57932],[-121.3412,38.57975],[-121.33223,38.57857],[-121.33097,38.57864],[-121.32952,38.57928],[-121.32722,38.58476],[-121.32694,38.58673],[-121.32865,38.58813],[-121.3308,38.59092],[-121.33164,38.59447],[-121.33149,38.59687],[-121.33107,38.59791],[-121.32796,38.60134],[-121.32446,38.60357],[-121.3228,38.60432],[-121.31809,38.6027],[-121.31709,38.603],[-121.31514,38.60461],[-121.30959,38.60724],[-121.30695,38.60915],[-121.30464,38.61179],[-121.30321,38.61416],[-121.30323,38.6147],[-121.30524,38.61717],[-121.3064,38.61942],[-121.30419,38.62418],[-121.30199,38.62609],[-121.29531,38.62994],[-121.29143,38.63083],[-121.29177,38.63629],[-121.2933,38.63624],[-121.29322,38.63792],[-121.29258,38.63985],[-121.29176,38.63984],[-121.29182,38.64143],[-121.29287,38.64196],[-121.29784,38.64189],[-121.29748,38.64264],[-121.29745,38.64589],[-121.29784,38.64588],[-121.29784,38.64912],[-121.30831,38.64898],[-121.3083,38.6558],[-121.30881,38.6558],[-121.30882,38.65827],[-121.30832,38.65824],[-121.30862,38.6652],[-121.30956,38.6652],[-121.30955,38.66563],[-121.31086,38.66563],[-121.31053,38.66712],[-121.30865,38.66693],[-121.30868,38.66879],[-121.30893,38.6686],[-121.30987,38.66892],[-121.31037,38.66992],[-121.3114,38.66991],[-121.31232,38.67049],[-121.31526,38.67095],[-121.31553,38.67121],[-121.31508,38.67218],[-121.31522,38.6726],[-121.3179,38.67225],[-121.31984,38.67291],[-121.31982,38.67388],[-121.3226,38.67399],[-121.32426,38.67374],[-121.32427,38.6733],[-121.32466,38.67381],[-121.32514,38.67337],[-121.3275,38.67274],[-121.32683,38.67318],[-121.32736,38.67366],[-121.33192,38.67051],[-121.33013,38.66886],[-121.32726,38.66882],[-121.32734,38.66404],[-121.32793,38.66405],[-121.32801,38.66161],[-121.32837,38.66162],[-121.32837,38.66126],[-121.3274,38.66125],[-121.32758,38.65395],[-121.33043,38.65349],[-121.33141,38.65284],[-121.33332,38.65344],[-121.33389,38.65403],[-121.33423,38.65387],[-121.33508,38.65524],[-121.33605,38.65541],[-121.33665,38.65605],[-121.33723,38.6562],[-121.33816,38.65519],[-121.34055,38.65423],[-121.34199,38.65326],[-121.34259,38.65121],[-121.34303,38.65112],[-121.34402,38.65174],[-121.34347,38.65237],[-121.34386,38.6527],[-121.34379,38.65358],[-121.35055,38.65366],[-121.35066,38.64358],[-121.34937,38.64334],[-121.34823,38.64109],[-121.347,38.64088],[-121.347,38.64005],[-121.34654,38.64002],[-121.34654,38.63954],[-121.34708,38.63953],[-121.34709,38.63914],[-121.34892,38.63916],[-121.34891,38.64005],[-121.35061,38.64043],[-121.35088,38.63918],[-121.35169,38.63919],[-121.3517,38.6401],[-121.35407,38.63985],[-121.35408,38.63922],[-121.3552,38.63941],[-121.35524,38.63561],[-121.35675,38.63549]]]},"properties":{"ZCTA5":"95608"}},{"type":"Feature","geometry":{"type":"Polygon","coordinates":[[[-121.23171,38.84215],[-121.23164,38.83904],[-121.22047,38.83941],[-121.22031,38.83223],[-121.22149,38.83222],[-121.22149,38.83253],[-121.22391,38.83239],[-121.22391,38.8246],[-121.22111,38.8246],[-121.22409,38.81918],[-121.22695,38.81033],[-121.21053,38.80975],[-121.21034,38.81023],[-121.21032,38.80935],[-121.20866,38.81036],[-121.2054,38.81029],[-121.20542,38.80309],[-121.19675,38.81041],[-121.19574,38.81066],[-121.19477,38.81044],[-121.19615,38.80992],[-121.19625,38.80594],[-121.19948,38.80589],[-121.1995,38.80535],[-121.19935,38.80495],[-121.19867,38.80498],[-121.19862,38.80424],[-121.19811,38.80421],[-121.19806,38.80331],[-121.19597,38.8033],[-121.19586,38.80193],[-121.1938,38.80162],[-121.19377,38.80034],[-121.19151,38.79997],[-121.19233,38.79805],[-121.19259,38.79657],[-121.19238,38.79386],[-121.2011,38.79383],[-121.20147,38.78227],[-121.20464,38.78222],[-121.2028,38.77914],[-121.20272,38.77759],[-121.20379,38.77607],[-121.20693,38.7742],[-121.18044,38.77417],[-121.18045,38.77068],[-121.17961,38.77051],[-121.1795,38.76697],[-121.1641,38.76697],[-121.16424,38.76969],[-121.15954,38.76971],[-121.15954,38.77432],[-121.15796,38.77431],[-121.15745,38.77518],[-121.15779,38.77583],[-121.15703,38.77607],[-121.15769,38.77794],[-121.15709,38.77853],[-121.15699,38.77968],[-121.15633,38.7811],[-121.15547,38.78169],[-121.15123,38.78258],[-121.14941,38.78381],[-121.1488,38.78454],[-121.14859,38.78658],[-121.14692,38.7876],[-121.14568,38.78902],[-121.14593,38.78925],[-121.14781,38.78919],[-121.14841,38.78788],[-121.14917,38.78737],[-121.155,38.78731],[-121.15506,38.78657],[-121.15901,38.78686],[-121.15969,38.78909],[-121.14823,38.79274],[-121.14023,38.7944],[-121.13825,38.79644],[-121.13625,38.79654],[-121.13489,38.79569],[-121.13815,38.79277],[-121.14058,38.78925],[-121.13068,38.7892],[-121.13022,38.79056],[-121.1307,38.79239],[-121.12785,38.79649],[-121.10867,38.79689],[-121.10224,38.7962],[-121.1011,38.79718],[-121.09956,38.79967],[-121.09808,38.80333],[-121.09776,38.80733],[-121.09874,38.81042],[-121.09938,38.81165],[-121.10152,38.81377],[-121.10176,38.81522],[-121.10143,38.81528],[-121.10143,38.82259],[-121.10087,38.82296],[-121.1005,38.82239],[-121.09973,38.82225],[-121.09994,38.82593],[-121.1063,38.82583],[-121.1063,38.82552],[-121.10745,38.82554],[-121.10748,38.82582],[-121.1101,38.82578],[-121.10996,38.82933],[-121.11162,38.82928],[-121.11162,38.83298],[-121.11846,38.83289],[-121.1181,38.83534],[-121.11889,38.83451],[-121.12106,38.83331],[-121.12151,38.83263],[-121.12177,38.83119],[-121.12205,38.83116],[-121.12436,38.83159],[-121.12447,38.83283],[-121.1318,38.83285],[-121.13171,38.83473],[-121.13395,38.83468],[-121.13397,38.83689],[-121.13554,38.83661],[-121.13585,38.83608],[-121.13692,38.83547],[-121.13715,38.83469],[-121.13822,38.83783],[-121.13876,38.8386],[-121.13916,38.83898],[-121.14074,38.839],[-121.14075,38.83638],[-121.15471,38.83633],[-121.15481,38.83273],[-121.15712,38.8327],[-121.15711,38.82903],[-121.16593,38.82901],[-121.16587,38.82977],[-121.16862,38.8297],[-121.16854,38.83408],[-121.1733,38.83034],[-121.17328,38.8343],[-121.17078,38.83436],[-121.17077,38.8356],[-121.17192,38.83558],[-121.17193,38.83826],[-121.17319,38.83824],[-121.17317,38.8395],[-121.17112,38.83962],[-121.17057,38.84154],[-121.17107,38.84153],[-121.16889,38.8452],[-121.17114,38.84503],[-121.17167,38.84531],[-121.17199,38.84476],[-121.1717,38.84425],[-121.17191,38.84392],[-121.17164,38.84355],[-121.17189,38.8423],[-121.1716,38.84197],[-121.17171,38.84128],[-121.17264,38.8414],[-121.1729,38.84765],[-121.17151,38.84882],[-121.17212,38.84889],[-121.17206,38.84953],[-121.1703,38.85053],[-121.16961,38.85038],[-121.16895,38.85085],[-121.16894,38.85119],[-121.16958,38.8516],[-121.1694,38.85223],[-121.16998,38.85246],[-121.1702,38.85145],[-121.17113,38.85041],[-121.17423,38.84927],[-121.1758,38.84789],[-121.17617,38.84727],[-121.17646,38.84528],[-121.17766,38.84392],[-121.17926,38.84328],[-121.18245,38.84333],[-121.18247,38.84686],[-121.20552,38.84676],[-121.2055,38.85388],[-121.20598,38.85397],[-121.20597,38.85299],[-121.20704,38.85203],[-121.20749,38.85082],[-121.20721,38.84944],[-121.20952,38.84754],[-121.21066,38.84611],[-121.21092,38.84494],[-121.21148,38.84457],[-121.21074,38.84288],[-121.21102,38.84194],[-121.21039,38.83947],[-121.22015,38.83949],[-121.2202,38.84333],[-121.2207,38.84471],[-121.22028,38.8474],[-121.21936,38.85035],[-121.21745,38.85336],[-121.21165,38.85915],[-121.21364,38.86105],[-121.215,38.86112],[-121.21603,38.86073],[-121.21693,38.86216],[-121.21834,38.86309],[-121.22342,38.86388],[-121.22498,38.8644],[-121.22554,38.8634],[-121.2263,38.86373],[-121.22828,38.8612],[-121.22789,38.86026],[-121.22861,38.8594],[-121.22771,38.85797],[-121.22782,38.85739],[-121.22881,38.85615],[-121.23155,38.85467],[-121.23171,38.84215]]]},"properties":{"ZCTA5":"95650"}},{"type":"Feature","geometry":{"type":"Polygon","coordinates":[[[-121.45726,38.92604],[-121.45008,38.86792],[-121.43326,38.86795],[-121.43301,38.86113],[-121.43203,38.85672],[-121.42784,38.85267],[-121.42689,38.85097],[-121.4171,38.84148],[-121.37086,38.84134],[-121.34706,38.82476],[-121.33124,38.82447],[-121.30747,38.82464],[-121.30726,38.83903],[-121.30694,38.83905],[-121.30698,38.84132],[-121.29967,38.84316],[-121.29971,38.83962],[-121.29065,38.8396],[-121.29064,38.83924],[-121.23165,38.83916],[-121.23155,38.85467],[-121.22881,38.85615],[-121.22782,38.85739],[-121.22771,38.85797],[-121.22861,38.8594],[-121.22789,38.86026],[-121.22828,38.8612],[-121.2263,38.86373],[-121.22554,38.8634],[-121.22498,38.8644],[-121.22286,38.8638],[-121.21912,38.86372],[-121.21932,38.86453],[-121.22058,38.86555],[-121.22018,38.86804],[-121.22134,38.86903],[-121.22165,38.86972],[-121.22094,38.86985],[-121.21794,38.86889],[-121.21586,38.86924],[-121.21502,38.86976],[-121.21465,38.87055],[-121.2148,38.87129],[-121.21572,38.87219],[-121.21367,38.8726],[-121.21258,38.87223],[-121.21161,38.87333],[-121.20647,38.87179],[-121.20498,38.87277],[-121.20516,38.87371],[-121.20695,38.8753],[-121.20747,38.87648],[-121.20725,38.87697],[-121.20329,38.87496],[-121.20595,38.87807],[-121.20603,38.87879],[-121.20778,38.88082],[-121.2086,38.88272],[-121.20943,38.88664],[-121.21686,38.88661],[-121.21751,38.88882],[-121.21945,38.89048],[-121.21911,38.91641],[-121.21806,38.91697],[-121.21695,38.9154],[-121.21688,38.91947],[-121.20051,38.91958],[-121.20039,38.92692],[-121.20504,38.92691],[-121.20524,38.93049],[-121.19841,38.93054],[-121.19843,38.93144],[-121.19585,38.9315],[-121.19589,38.9343],[-121.19126,38.93433],[-121.19001,38.9347],[-121.18635,38.93406],[-121.1865,38.94164],[-121.18181,38.94164],[-121.18182,38.94893],[-121.17651,38.94887],[-121.17875,38.95026],[-121.17902,38.95133],[-121.17868,38.95196],[-121.17905,38.95222],[-121.17898,38.95269],[-121.1802,38.9534],[-121.18035,38.95418],[-121.18006,38.95454],[-121.17799,38.95393],[-121.17454,38.95163],[-121.17387,38.95164],[-121.1737,38.95208],[-121.17447,38.95231],[-121.17833,38.95512],[-121.17982,38.95674],[-121.18284,38.95756],[-121.18343,38.95837],[-121.18513,38.95821],[-121.18597,38.9576],[-121.18645,38.9578],[-121.18675,38.97096],[-121.18646,38.97097],[-121.18643,38.97564],[-121.18662,38.98531],[-121.18691,38.98531],[-121.1868,39.01271],[-121.18773,39.01249],[-121.18856,39.01274],[-121.19228,39.01553],[-121.19769,39.01665],[-121.19887,39.01755],[-121.20295,39.01588],[-121.20467,39.01563],[-121.20548,39.01349],[-121.20539,39.01257],[-121.20591,39.01185],[-121.20827,39.01215],[-121.21094,39.01199],[-121.21352,39.01292],[-121.21633,39.01277],[-121.22009,39.01178],[-121.22179,39.01196],[-121.22562,39.0178],[-121.22894,39.0221],[-121.23006,39.02315],[-121.23228,39.02407],[-121.23293,39.02467],[-121.23802,39.02396],[-121.24097,39.02137],[-121.24282,39.02267],[-121.24401,39.02294],[-121.24492,39.02394],[-121.24677,39.02486],[-121.24791,39.02611],[-121.24818,39.02819],[-121.24968,39.02892],[-121.25325,39.02767],[-121.25701,39.02801],[-121.25766,39.02832],[-121.25785,39.02911],[-121.25848,39.02951],[-121.26052,39.02913],[-121.26357,39.03008],[-121.26585,39.03031],[-121.26716,39.0316],[-121.26921,39.03285],[-121.27035,39.03205],[-121.27071,39.03211],[-121.27304,39.03418],[-121.27389,39.03386],[-121.27694,39.03452],[-121.27942,39.03459],[-121.28353,39.03574],[-121.29021,39.03687],[-121.29141,39.03781],[-121.29224,39.04129],[-121.29333,39.04397],[-121.29415,39.04464],[-121.29959,39.04728],[-121.30234,39.04783],[-121.30352,39.05093],[-121.3045,39.05247],[-121.30526,39.05283],[-121.30704,39.0529],[-121.31155,39.05199],[-121.31539,39.04996],[-121.31742,39.04967],[-121.3196,39.04867],[-121.32031,39.04618],[-121.32013,39.04573],[-121.32072,39.04437],[-121.32301,39.043],[-121.32373,39.04283],[-121.32599,39.0439],[-121.32738,39.04416],[-121.32912,39.0439],[-121.33124,39.04282],[-121.33214,39.04202],[-121.33202,39.04184],[-121.33064,39.04221],[-121.32913,39.04308],[-121.32929,39.04151],[-121.32978,39.04122],[-121.33121,39.04134],[-121.33157,39.04019],[-121.33222,39.03958],[-121.33529,39.03831],[-121.33689,39.03668],[-121.33797,39.03393],[-121.33753,39.03084],[-121.3377,39.02965],[-121.33943,39.02724],[-121.34074,39.02615],[-121.34061,39.02396],[-121.33098,39.02387],[-121.33103,39.03152],[-121.32229,39.03147],[-121.32211,39.03492],[-121.3123,39.03496],[-121.31243,39.01811],[-121.33327,39.00964],[-121.33324,39.00483],[-121.33387,39.00456],[-121.33425,39.00284],[-121.33556,39.00173],[-121.33634,39.00056],[-121.3363,39.00022],[-121.33563,39.00024],[-121.33546,38.99945],[-121.33601,38.99871],[-121.33601,38.99737],[-121.33671,38.99744],[-121.33698,38.99669],[-121.33605,38.9964],[-121.33583,38.99437],[-121.33509,38.99449],[-121.33488,38.99407],[-121.33332,38.99369],[-121.3336,38.99354],[-121.33335,38.99299],[-121.3341,38.99204],[-121.33362,38.99199],[-121.33361,38.99168],[-121.33439,38.99117],[-121.33418,38.99074],[-121.33506,38.99018],[-121.33835,38.98884],[-121.33855,38.98842],[-121.338,38.98795],[-121.33865,38.98771],[-121.33881,38.98715],[-121.33994,38.98662],[-121.34021,38.98602],[-121.34021,38.98486],[-121.33028,38.98489],[-121.33067,38.97826],[-121.32171,38.97821],[-121.32216,38.95525],[-121.34939,38.95562],[-121.34932,38.96283],[-121.36024,38.96287],[-121.36097,38.96262],[-121.37572,38.97946],[-121.37808,38.98099],[-121.38267,38.97879],[-121.3861,38.98677],[-121.38773,38.98901],[-121.40658,38.99991],[-121.40789,38.99905],[-121.41212,38.99899],[-121.41457,38.99847],[-121.41479,38.99842],[-121.41485,38.9919],[-121.4146,38.9591],[-121.41438,38.95849],[-121.4144,38.92621],[-121.45726,38.92604]]]},"properties":{"ZCTA5":"95648"}},{"type":"Feature","geometry":{"type":"Polygon","coordinates":[[[-121.34362,38.82453],[-121.34445,38.82453],[-121.31881,38.80606],[-121.31263,38.80721],[-121.31187,38.80467],[-121.30814,38.80538],[-121.30785,38.81013],[-121.30069,38.81002],[-121.30073,38.80528],[-121.30043,38.80539],[-121.3002,38.8017],[-121.29911,38.79835],[-121.29749,38.79559],[-121.27492,38.7957],[-121.26847,38.79325],[-121.26736,38.79441],[-121.265,38.79602],[-121.26386,38.795],[-121.26255,38.79593],[-121.26178,38.79661],[-121.26208,38.79681],[-121.25911,38.79952],[-121.25466,38.80243],[-121.25415,38.80465],[-121.24943,38.80499],[-121.2492,38.80465],[-121.24449,38.80691],[-121.24263,38.80851],[-121.24261,38.81209],[-121.23958,38.81212],[-121.23804,38.81572],[-121.23414,38.82116],[-121.23341,38.82112],[-121.23342,38.82292],[-121.23048,38.82293],[-121.22973,38.8242],[-121.23006,38.82555],[-121.22971,38.82642],[-121.22882,38.82704],[-121.22826,38.82805],[-121.22645,38.82992],[-121.22582,38.83124],[-121.22534,38.83299],[-121.22543,38.83408],[-121.22496,38.83473],[-121.2252,38.83564],[-121.22473,38.83613],[-121.22465,38.837],[-121.22541,38.83797],[-121.22561,38.83893],[-121.22628,38.83922],[-121.22969,38.83912],[-121.22969,38.83891],[-121.23266,38.83918],[-121.29064,38.83924],[-121.29065,38.8396],[-121.29971,38.83962],[-121.29967,38.84316],[-121.30698,38.84132],[-121.30694,38.83905],[-121.30726,38.83903],[-121.30747,38.82464],[-121.34362,38.82453]]]},"properties":{"ZCTA5":"95765"}},{"type":"Feature","geometry":{"type":"Polygon","coordinates":[[[-121.11862,38.71712],[-121.10536,38.68928],[-121.10428,38.68937],[-121.10331,38.6871],[-121.10336,38.68509],[-121.10163,38.68275],[-121.10135,38.68089],[-121.10017,38.67842],[-121.09891,38.67695],[-121.09833,38.6756],[-121.09823,38.67437],[-121.08543,38.64783],[-121.0793,38.63286],[-121.07047,38.60759],[-121.05553,38.57315],[-121.05389,38.57379],[-121.0531,38.57371],[-121.05165,38.57449],[-121.05145,38.57529],[-121.04975,38.57584],[-121.04611,38.5791],[-121.04591,38.57996],[-121.04615,38.58185],[-121.04689,38.58453],[-121.04674,38.58602],[-121.04516,38.58781],[-121.04549,38.58799],[-121.04545,38.58868],[-121.04386,38.58983],[-121.04365,38.59075],[-121.04198,38.59233],[-121.04158,38.59375],[-121.04013,38.59477],[-121.03367,38.59638],[-121.02995,38.59883],[-121.02552,38.59785],[-121.02286,38.59903],[-121.02135,38.59894],[-121.02249,38.60016],[-121.02325,38.60198],[-121.02307,38.60465],[-121.02237,38.60537],[-121.0202,38.60668],[-121.01335,38.60675],[-121.01102,38.60734],[-121.01075,38.60785],[-121.01144,38.60933],[-121.01112,38.61011],[-121.00734,38.61151],[-121.00654,38.6123],[-121.00608,38.61345],[-121.00426,38.61255],[-121.00251,38.61258],[-121.00249,38.6131],[-121.0039,38.61486],[-121.00361,38.61529],[-121.00178,38.61527],[-120.99548,38.61308],[-120.99458,38.61339],[-120.99429,38.61378],[-120.99421,38.61661],[-120.99518,38.61661],[-120.99596,38.61841],[-120.99948,38.62054],[-121.0029,38.6235],[-121.00323,38.6245],[-121.00307,38.62509],[-121.00346,38.62577],[-121.00472,38.62628],[-121.00555,38.62602],[-121.00631,38.62685],[-121.00744,38.62926],[-121.00706,38.62994],[-121.00726,38.63106],[-121.00685,38.63212],[-121.00877,38.63428],[-121.01077,38.63564],[-121.01212,38.63707],[-121.01234,38.63835],[-121.01315,38.63957],[-121.01212,38.64042],[-121.01279,38.64316],[-121.01435,38.64495],[-121.01705,38.64665],[-121.01788,38.64752],[-121.01859,38.65017],[-121.01932,38.65158],[-121.02326,38.65337],[-121.02644,38.65369],[-121.02806,38.65344],[-121.02935,38.65381],[-121.0298,38.65447],[-121.02987,38.65697],[-121.03179,38.65897],[-121.0322,38.65986],[-121.03293,38.66499],[-121.03287,38.6665],[-121.0292,38.66591],[-121.02744,38.66611],[-121.02348,38.66896],[-121.02206,38.67061],[-121.02125,38.67094],[-121.01985,38.67068],[-121.01797,38.66932],[-121.01635,38.6691],[-121.01628,38.66771],[-121.01479,38.66791],[-121.01172,38.66716],[-121.01001,38.67075],[-121.00912,38.67113],[-121.00322,38.67112],[-121.00319,38.6784],[-121.0078,38.67839],[-121.00777,38.6883],[-121.00827,38.68744],[-121.01163,38.68498],[-121.01225,38.6855],[-121.0309,38.68555],[-121.03092,38.68914],[-121.03412,38.68933],[-121.03412,38.69011],[-121.03934,38.69047],[-121.03988,38.689],[-121.04054,38.689],[-121.04052,38.69275],[-121.04524,38.69276],[-121.04521,38.6964],[-121.04987,38.69641],[-121.04989,38.69817],[-121.05781,38.69685],[-121.05003,38.69833],[-121.05013,38.70006],[-121.04309,38.70004],[-121.04055,38.70052],[-121.04053,38.70816],[-121.03894,38.70689],[-121.03618,38.7068],[-121.03137,38.70335],[-121.02944,38.70366],[-121.02648,38.70476],[-121.02408,38.70707],[-121.02339,38.70834],[-121.02191,38.70917],[-121.02075,38.7111],[-121.02078,38.71134],[-121.02198,38.70972],[-121.0229,38.70918],[-121.02429,38.70895],[-121.02545,38.70831],[-121.0299,38.70788],[-121.03137,38.70979],[-121.03345,38.71085],[-121.0341,38.71177],[-121.03419,38.71259],[-121.03544,38.71416],[-121.03544,38.71464],[-121.0262,38.71464],[-121.02616,38.72273],[-121.02848,38.72233],[-121.03284,38.72277],[-121.03417,38.72334],[-121.03558,38.72706],[-121.03597,38.72923],[-121.03666,38.73029],[-121.03686,38.73137],[-121.03853,38.73426],[-121.03926,38.73498],[-121.03934,38.73567],[-121.03901,38.73632],[-121.03985,38.73766],[-121.03758,38.73749],[-121.03657,38.73779],[-121.03473,38.74042],[-121.03142,38.74124],[-121.03079,38.74219],[-121.02982,38.74257],[-121.02956,38.74335],[-121.02891,38.74358],[-121.02705,38.74557],[-121.02566,38.746],[-121.02428,38.74601],[-121.02294,38.74548],[-121.02247,38.74464],[-121.0218,38.74439],[-121.02103,38.74444],[-121.02103,38.74521],[-121.02171,38.74643],[-121.02294,38.74628],[-121.02558,38.74758],[-121.02784,38.74988],[-121.02968,38.75088],[-121.03264,38.75337],[-121.03269,38.75701],[-121.03307,38.75781],[-121.03462,38.75921],[-121.03712,38.75965],[-121.03573,38.76056],[-121.03699,38.76254],[-121.03699,38.7651],[-121.03916,38.76562],[-121.04092,38.76514],[-121.04205,38.76414],[-121.04279,38.76422],[-121.04249,38.76505],[-121.04055,38.76629],[-121.04017,38.76707],[-121.04033,38.76762],[-121.04214,38.7697],[-121.04211,38.77037],[-121.0392,38.77248],[-121.03678,38.77299],[-121.04075,38.77321],[-121.04558,38.77216],[-121.04919,38.77205],[-121.05197,38.77107],[-121.05391,38.7695],[-121.05953,38.76319],[-121.06045,38.7612],[-121.06022,38.7582],[-121.06159,38.75631],[-121.06276,38.75559],[-121.06624,38.75455],[-121.06759,38.75497],[-121.06838,38.75577],[-121.06902,38.75778],[-121.07044,38.75879],[-121.07111,38.75887],[-121.07245,38.75665],[-121.07272,38.7551],[-121.07241,38.75321],[-121.07729,38.7499],[-121.07914,38.74748],[-121.08207,38.74676],[-121.08563,38.74656],[-121.08651,38.74566],[-121.08941,38.7447],[-121.09149,38.74185],[-121.09181,38.73786],[-121.09235,38.73688],[-121.09317,38.73645],[-121.09933,38.73581],[-121.10264,38.73425],[-121.1093,38.73425],[-121.11184,38.73483],[-121.11245,38.73454],[-121.11302,38.7327],[-121.11274,38.72688],[-121.11338,38.72544],[-121.1129,38.72297],[-121.11318,38.72163],[-121.11494,38.7192],[-121.11664,38.71779],[-121.11862,38.71712]]]},"properties":{"ZCTA5":"95762"}},{"type":"Feature","geometry":{"type":"Polygon","coordinates":[[[-121.42313,38.57018],[-121.42303,38.56796],[-121.42228,38.5656],[-121.42055,38.56245],[-121.41894,38.56076],[-121.41691,38.5598],[-121.41523,38.55963],[-121.40927,38.56028],[-121.40921,38.5623],[-121.40744,38.56268],[-121.40664,38.56316],[-121.40538,38.56643],[-121.40468,38.56632],[-121.40455,38.56672],[-121.40355,38.56639],[-121.40285,38.56838],[-121.40314,38.56881],[-121.40159,38.57092],[-121.4015,38.57318],[-121.39962,38.57312],[-121.39965,38.57366],[-121.4015,38.5738],[-121.40149,38.58149],[-121.39924,38.58146],[-121.39919,38.58417],[-121.39969,38.58423],[-121.39969,38.58467],[-121.4003,38.58468],[-121.40031,38.58703],[-121.40029,38.58871],[-121.39917,38.5887],[-121.39916,38.59096],[-121.40047,38.59097],[-121.40048,38.59149],[-121.39916,38.5915],[-121.39915,38.59343],[-121.40031,38.59344],[-121.40031,38.59306],[-121.40081,38.59307],[-121.40081,38.59351],[-121.40144,38.59352],[-121.40143,38.59537],[-121.39983,38.59451],[-121.40058,38.59351],[-121.39571,38.59331],[-121.39508,38.59343],[-121.395,38.59589],[-121.38306,38.59574],[-121.38297,38.60565],[-121.38004,38.60559],[-121.37866,38.60625],[-121.37787,38.6076],[-121.37808,38.60856],[-121.37867,38.60904],[-121.37863,38.61038],[-121.41762,38.61083],[-121.41762,38.61039],[-121.42058,38.6106],[-121.42079,38.60903],[-121.42034,38.60889],[-121.42043,38.60759],[-121.41995,38.60759],[-121.41993,38.58059],[-121.42169,38.57744],[-121.42313,38.57018]]]},"properties":{"ZCTA5":"95825"}},{"type":"Feature","geometry":{"type":"Polygon","coordinates":[[[-121.40927,38.56043],[-121.40559,38.56063],[-121.40395,38.56165],[-121.39916,38.56261],[-121.38285,38.56676],[-121.36486,38.5693],[-121.35865,38.57106],[-121.34754,38.57648],[-121.34614,38.57784],[-121.34626,38.5784],[-121.34831,38.57736],[-121.35032,38.58038],[-121.35032,38.58092],[-121.3508,38.58075],[-121.35462,38.58503],[-121.35253,38.58659],[-121.35344,38.58764],[-121.35386,38.58736],[-121.35531,38.59001],[-121.35535,38.59841],[-121.35483,38.59844],[-121.35479,38.59961],[-121.35531,38.60093],[-121.35579,38.60098],[-121.35577,38.60291],[-121.35529,38.60291],[-121.35526,38.6075],[-121.35629,38.60795],[-121.35629,38.60964],[-121.35524,38.60982],[-121.35525,38.61012],[-121.35989,38.61017],[-121.35992,38.60659],[-121.3643,38.60667],[-121.36454,38.60708],[-121.36453,38.61025],[-121.3742,38.61034],[-121.3742,38.60987],[-121.37581,38.60987],[-121.37579,38.61036],[-121.37662,38.61037],[-121.3766,38.60989],[-121.37832,38.60984],[-121.37866,38.60967],[-121.37867,38.60904],[-121.37808,38.60856],[-121.37787,38.6075],[-121.37871,38.6062],[-121.38004,38.60559],[-121.38297,38.60565],[-121.38306,38.59574],[-121.395,38.59589],[-121.39508,38.59343],[-121.39571,38.59331],[-121.40058,38.59351],[-121.39983,38.59451],[-121.40143,38.59537],[-121.40144,38.59352],[-121.40081,38.59351],[-121.40081,38.59307],[-121.40031,38.59306],[-121.40031,38.59344],[-121.39915,38.59343],[-121.39916,38.5915],[-121.40048,38.59149],[-121.40047,38.59097],[-121.39916,38.59096],[-121.39917,38.5887],[-121.40029,38.58871],[-121.40031,38.58703],[-121.4003,38.58468],[-121.39969,38.58467],[-121.39969,38.58423],[-121.39919,38.58417],[-121.39924,38.58146],[-121.40149,38.58149],[-121.4015,38.5738],[-121.39965,38.57366],[-121.39962,38.57312],[-121.4015,38.57318],[-121.40159,38.57092],[-121.40314,38.56881],[-121.40285,38.56838],[-121.40355,38.56639],[-121.40455,38.56672],[-121.40468,38.56632],[-121.40538,38.56643],[-121.40664,38.56316],[-121.40744,38.56268],[-121.40921,38.5623],[-121.40927,38.56043]]]},"properties":{"ZCTA5":"95864"}},{"type":"Feature","geometry":{"type":"Polygon","coordinates":[[[-121.3347,38.70352],[-121.33058,38.70726],[-121.32791,38.70716],[-121.32767,38.70638],[-121.32628,38.70538],[-121.32645,38.69845],[-121.32732,38.69846],[-121.32737,38.69716],[-121.32786,38.69683],[-121.33028,38.69677],[-121.33012,38.6961],[-121.32904,38.69611],[-121.32865,38.69537],[-121.32786,38.69544],[-121.32742,38.69449],[-121.32655,38.6946],[-121.32662,38.68962],[-121.3282,38.68963],[-121.33188,38.68626],[-121.32975,38.68518],[-121.32671,38.68798],[-121.32684,38.67957],[-121.3285,38.67915],[-121.32911,38.67843],[-121.33047,38.67773],[-121.33043,38.67663],[-121.32962,38.67543],[-121.3303,38.67483],[-121.3326,38.67425],[-121.33345,38.67328],[-121.33359,38.67216],[-121.33168,38.67285],[-121.33139,38.67254],[-121.33104,38.67348],[-121.32848,38.67514],[-121.32702,38.67478],[-121.32705,38.67388],[-121.32736,38.67366],[-121.32683,38.67318],[-121.3275,38.67274],[-121.32514,38.67337],[-121.32466,38.67381],[-121.32427,38.6733],[-121.32426,38.67374],[-121.3226,38.67399],[-121.31982,38.67388],[-121.31984,38.67291],[-121.31864,38.67243],[-121.3179,38.67225],[-121.31522,38.6726],[-121.31533,38.67118],[-121.31263,38.67096],[-121.31255,38.67349],[-121.31004,38.67354],[-121.30976,38.67295],[-121.31135,38.67291],[-121.31109,38.67194],[-121.30915,38.67196],[-121.30874,38.67079],[-121.2994,38.67068],[-121.29924,38.66498],[-121.29786,38.66433],[-121.29768,38.66354],[-121.29279,38.66361],[-121.29275,38.66753],[-121.29232,38.66755],[-121.29233,38.66792],[-121.29287,38.66793],[-121.29309,38.6694],[-121.29235,38.66945],[-121.29238,38.6717],[-121.29445,38.67173],[-121.29447,38.67329],[-121.2935,38.67331],[-121.29354,38.67456],[-121.29305,38.67457],[-121.29306,38.67504],[-121.29384,38.67499],[-121.29565,38.67681],[-121.29603,38.67809],[-121.29245,38.67832],[-121.2922,38.67925],[-121.29073,38.68037],[-121.29029,38.68117],[-121.29029,38.68194],[-121.29251,38.68187],[-121.29259,38.68413],[-121.2915,38.68414],[-121.29151,38.68485],[-121.29094,38.68486],[-121.29094,38.68557],[-121.292,38.68551],[-121.2922,38.68649],[-121.29175,38.68677],[-121.29223,38.68705],[-121.29233,38.68863],[-121.29162,38.68914],[-121.29108,38.68892],[-121.29034,38.68928],[-121.29041,38.7089],[-121.29089,38.70858],[-121.29083,38.70756],[-121.29147,38.70726],[-121.2925,38.70738],[-121.29274,38.7083],[-121.29389,38.70845],[-121.29553,38.70806],[-121.29591,38.70766],[-121.29649,38.70788],[-121.29681,38.70744],[-121.29994,38.70742],[-121.2999,38.71006],[-121.29706,38.71023],[-121.29705,38.70944],[-121.292,38.70942],[-121.29202,38.71316],[-121.29119,38.71338],[-121.29116,38.71442],[-121.29042,38.7147],[-121.2904,38.7215],[-121.30005,38.72224],[-121.30427,38.72199],[-121.30505,38.72207],[-121.30505,38.72244],[-121.30223,38.72239],[-121.3129,38.72308],[-121.317,38.72045],[-121.3347,38.70352]]]},"properties":{"ZCTA5":"95621"}},{"type":"Feature","geometry":{"type":"Polygon","coordinates":[[[-121.35865,38.57106],[-121.35839,38.57072],[-121.35758,38.5707],[-121.35455,38.57133],[-121.35376,38.57059],[-121.35118,38.56549],[-121.35062,38.56514],[-121.34823,38.55998],[-121.34416,38.54913],[-121.3439,38.54396],[-121.3441,38.53658],[-121.3438,38.53657],[-121.34423,38.52177],[-121.34644,38.52177],[-121.34646,38.52042],[-121.34416,38.52043],[-121.34416,38.51997],[-121.34331,38.52],[-121.34244,38.52049],[-121.34318,38.52172],[-121.34293,38.52211],[-121.34082,38.52171],[-121.33957,38.52247],[-121.33956,38.52418],[-121.33761,38.52869],[-121.33614,38.52828],[-121.33593,38.52876],[-121.33493,38.52849],[-121.33493,38.5233],[-121.33254,38.52308],[-121.33057,38.52414],[-121.32698,38.52418],[-121.32697,38.52486],[-121.32572,38.52485],[-121.3257,38.51817],[-121.31619,38.51825],[-121.31619,38.51764],[-121.31538,38.51826],[-121.30714,38.51833],[-121.30718,38.51412],[-121.30231,38.51413],[-121.29945,38.5164],[-121.29899,38.51785],[-121.29788,38.51886],[-121.29785,38.53167],[-121.29245,38.53583],[-121.30227,38.53823],[-121.31307,38.54021],[-121.31414,38.54007],[-121.3166,38.53871],[-121.31781,38.53864],[-121.31872,38.53909],[-121.32103,38.5416],[-121.32166,38.54885],[-121.32084,38.54858],[-121.31703,38.55084],[-121.3173,38.56101],[-121.3146,38.56282],[-121.30847,38.566],[-121.29796,38.57085],[-121.3007,38.57285],[-121.30085,38.57358],[-121.30179,38.57357],[-121.30455,38.5754],[-121.30906,38.57954],[-121.30989,38.58125],[-121.30984,38.58567],[-121.32181,38.57975],[-121.32253,38.58203],[-121.32098,38.58237],[-121.32145,38.58454],[-121.3232,38.5842],[-121.32511,38.59034],[-121.32721,38.59264],[-121.32754,38.5942],[-121.32714,38.59497],[-121.3285,38.59603],[-121.32943,38.59594],[-121.33079,38.59751],[-121.32815,38.60066],[-121.32719,38.60129],[-121.31954,38.60221],[-121.31776,38.60191],[-121.31719,38.6021],[-121.31909,38.60231],[-121.31899,38.60256],[-121.31809,38.6027],[-121.3228,38.60432],[-121.32628,38.60264],[-121.32796,38.60134],[-121.33107,38.59791],[-121.33149,38.59687],[-121.33164,38.59447],[-121.3308,38.59092],[-121.32865,38.58813],[-121.32694,38.58673],[-121.32722,38.58476],[-121.32952,38.57928],[-121.33097,38.57864],[-121.33223,38.57857],[-121.34057,38.57975],[-121.34377,38.57932],[-121.34614,38.57784],[-121.34754,38.57648],[-121.35865,38.57106]]]},"properties":{"ZCTA5":"95827"}},{"type":"Feature","geometry":{"type":"Polygon","coordinates":[[[-121.37304,38.66842],[-121.36703,38.66835],[-121.36786,38.66732],[-121.36911,38.66673],[-121.36815,38.66664],[-121.36815,38.66695],[-121.36783,38.66693],[-121.36774,38.66658],[-121.36439,38.66637],[-121.36438,38.66401],[-121.36669,38.66381],[-121.36679,38.66295],[-121.36838,38.66296],[-121.36836,38.66206],[-121.36787,38.66203],[-121.36779,38.66115],[-121.36688,38.66112],[-121.36682,38.65939],[-121.36439,38.65932],[-121.36437,38.66105],[-121.36025,38.661],[-121.32658,38.6921],[-121.32655,38.6946],[-121.32742,38.69449],[-121.32786,38.69544],[-121.32865,38.69537],[-121.32904,38.69611],[-121.33012,38.6961],[-121.33028,38.69677],[-121.32786,38.69683],[-121.32737,38.69716],[-121.32732,38.69846],[-121.32645,38.69845],[-121.3263,38.70545],[-121.32767,38.70638],[-121.32791,38.70716],[-121.33058,38.70726],[-121.33518,38.70308],[-121.33726,38.70353],[-121.36047,38.70381],[-121.3607,38.70296],[-121.36201,38.70268],[-121.36261,38.70299],[-121.36279,38.70189],[-121.36365,38.70189],[-121.36375,38.68904],[-121.35967,38.68904],[-121.35967,38.68947],[-121.35807,38.68947],[-121.35808,38.68904],[-121.35762,38.68904],[-121.35764,38.68754],[-121.35482,38.68753],[-121.35483,38.68635],[-121.35539,38.68572],[-121.35495,38.6851],[-121.37304,38.66842]]]},"properties":{"ZCTA5":"95842"}},{"type":"Feature","geometry":{"type":"Polygon","coordinates":[[[-121.40344,38.71445],[-121.40158,38.71436],[-121.40132,38.70384],[-121.4008,38.70347],[-121.39963,38.70375],[-121.39752,38.70321],[-121.39668,38.70333],[-121.39668,38.70442],[-121.3921,38.70433],[-121.39208,38.70352],[-121.39085,38.70333],[-121.38982,38.70262],[-121.38971,38.70131],[-121.38916,38.70126],[-121.38846,38.70045],[-121.38763,38.70028],[-121.38742,38.70424],[-121.37266,38.70398],[-121.37266,38.70345],[-121.36364,38.70327],[-121.36365,38.70189],[-121.36279,38.70189],[-121.36261,38.70299],[-121.36201,38.70268],[-121.3607,38.70296],[-121.36047,38.70381],[-121.33726,38.70353],[-121.33518,38.70308],[-121.317,38.72045],[-121.3129,38.72308],[-121.39739,38.72891],[-121.3991,38.72528],[-121.39935,38.72272],[-121.40013,38.72177],[-121.40106,38.71923],[-121.40071,38.71743],[-121.40096,38.71676],[-121.40344,38.71445]]]},"properties":{"ZCTA5":"95843"}},{"type":"Feature","geometry":{"type":"Polygon","coordinates":[[[-121.40679,38.63724],[-121.40499,38.63724],[-121.40091,38.63916],[-121.39715,38.64168],[-121.39208,38.64353],[-121.37945,38.6455],[-121.37717,38.64612],[-121.37445,38.64801],[-121.36025,38.661],[-121.36437,38.66105],[-121.36439,38.65932],[-121.36682,38.65939],[-121.36688,38.66112],[-121.36779,38.66115],[-121.36787,38.66203],[-121.36836,38.66206],[-121.36838,38.66296],[-121.36679,38.66295],[-121.36669,38.66381],[-121.36438,38.66401],[-121.36439,38.66637],[-121.36774,38.66658],[-121.36783,38.66693],[-121.36815,38.66695],[-121.36815,38.66664],[-121.36911,38.66673],[-121.36786,38.66732],[-121.36703,38.66835],[-121.37304,38.66842],[-121.35495,38.6851],[-121.35539,38.68572],[-121.35483,38.68635],[-121.35482,38.68753],[-121.35764,38.68754],[-121.35762,38.68904],[-121.35808,38.68904],[-121.35807,38.68947],[-121.35967,38.68947],[-121.35967,38.68904],[-121.36375,38.68904],[-121.36364,38.70327],[-121.37266,38.70345],[-121.37266,38.70398],[-121.38742,38.70424],[-121.38745,38.70026],[-121.38846,38.70045],[-121.38916,38.70126],[-121.38971,38.70131],[-121.38982,38.70262],[-121.39085,38.70333],[-121.39208,38.70352],[-121.3921,38.70433],[-121.39668,38.70442],[-121.39668,38.70333],[-121.39752,38.70321],[-121.39963,38.70375],[-121.4008,38.70347],[-121.40099,38.70378],[-121.4038,38.70429],[-121.40541,38.70439],[-121.40579,38.70402],[-121.40596,38.69781],[-121.40483,38.6978],[-121.40485,38.69601],[-121.40365,38.696],[-121.40367,38.69144],[-121.40313,38.69145],[-121.40313,38.69056],[-121.40136,38.69054],[-121.40137,38.68838],[-121.39735,38.68783],[-121.39693,38.68748],[-121.39691,38.67959],[-121.39505,38.6795],[-121.3941,38.67862],[-121.3928,38.67856],[-121.39278,38.67592],[-121.38668,38.67585],[-121.38642,38.67403],[-121.3853,38.67402],[-121.38529,38.67182],[-121.38463,38.67177],[-121.38461,38.66858],[-121.38293,38.66854],[-121.38287,38.65932],[-121.40679,38.63724]]]},"properties":{"ZCTA5":"95660"}},{"type":"Feature","geometry":{"type":"Polygon","coordinates":[[[-121.20706,38.63731],[-121.20691,38.63684],[-121.20623,38.63669],[-121.20194,38.63891],[-121.19874,38.63978],[-121.17509,38.6427],[-121.17215,38.64283],[-121.15646,38.64215],[-121.15551,38.63828],[-121.15415,38.63651],[-121.1517,38.63491],[-121.15035,38.63278],[-121.15048,38.61461],[-121.14925,38.6152],[-121.13935,38.61772],[-121.13102,38.61808],[-121.12206,38.61925],[-121.11601,38.62166],[-121.08924,38.62785],[-121.08667,38.62774],[-121.0838,38.62839],[-121.08233,38.62914],[-121.08055,38.63084],[-121.0793,38.63286],[-121.08543,38.64783],[-121.09823,38.67437],[-121.09833,38.6756],[-121.09891,38.67695],[-121.10017,38.67842],[-121.10135,38.68089],[-121.10163,38.68275],[-121.10336,38.68509],[-121.10331,38.6871],[-121.10428,38.68937],[-121.10536,38.68928],[-121.11905,38.71786],[-121.11926,38.71498],[-121.12005,38.71436],[-121.12148,38.71408],[-121.12403,38.71047],[-121.12632,38.70988],[-121.12718,38.70902],[-121.1293,38.7084],[-121.13075,38.70638],[-121.13316,38.70537],[-121.13395,38.70554],[-121.13533,38.70743],[-121.13855,38.70847],[-121.1392,38.71064],[-121.14065,38.7116],[-121.14252,38.71213],[-121.14662,38.71139],[-121.18857,38.71431],[-121.18873,38.71388],[-121.19364,38.71397],[-121.19438,38.69969],[-121.19263,38.69966],[-121.19277,38.68665],[-121.1964,38.68548],[-121.19644,38.6845],[-121.19747,38.6845],[-121.19757,38.68167],[-121.1999,38.68172],[-121.2,38.67809],[-121.19964,38.67809],[-121.19964,38.67744],[-121.20002,38.67744],[-121.20004,38.67533],[-121.19948,38.67509],[-121.19745,38.67688],[-121.19385,38.67836],[-121.19103,38.68],[-121.18818,38.67661],[-121.1905,38.67523],[-121.19089,38.67396],[-121.18938,38.67005],[-121.18925,38.66552],[-121.19256,38.6501],[-121.19436,38.64585],[-121.19683,38.64424],[-121.20056,38.64247],[-121.20676,38.64045],[-121.20676,38.63805],[-121.20706,38.63731]],[[-121.16734,38.68708],[-121.16686,38.7003],[-121.16424,38.70446],[-121.15956,38.705],[-121.15668,38.70768],[-121.14789,38.70362],[-121.14644,38.7009],[-121.14441,38.69981],[-121.14359,38.69897],[-121.14399,38.69602],[-121.14286,38.69368],[-121.14525,38.69251],[-121.14736,38.69006],[-121.14864,38.68904],[-121.15522,38.68639],[-121.16114,38.68248],[-121.16252,38.68188],[-121.16734,38.68708]]]},"properties":{"ZCTA5":"95630"}},{"type":"Feature","geometry":{"type":"Polygon","coordinates":[[[-121.29987,38.7088],[-121.29994,38.70742],[-121.29681,38.70744],[-121.29649,38.70788],[-121.29591,38.70766],[-121.29553,38.70806],[-121.29389,38.70845],[-121.29274,38.7083],[-121.29262,38.70749],[-121.29165,38.70724],[-121.29083,38.70756],[-121.29089,38.70858],[-121.29041,38.7089],[-121.29034,38.68928],[-121.29108,38.68892],[-121.29162,38.68914],[-121.29233,38.68863],[-121.29223,38.68705],[-121.29175,38.68677],[-121.2922,38.68649],[-121.292,38.68551],[-121.29094,38.68557],[-121.29094,38.68486],[-121.29151,38.68485],[-121.2915,38.68414],[-121.29259,38.68413],[-121.29251,38.68187],[-121.29029,38.68194],[-121.29029,38.68117],[-121.29073,38.68037],[-121.2922,38.67925],[-121.29245,38.67832],[-121.29603,38.67809],[-121.29565,38.67681],[-121.29384,38.67499],[-121.29306,38.67504],[-121.29305,38.67457],[-121.29354,38.67456],[-121.2935,38.67331],[-121.29447,38.67329],[-121.29445,38.67173],[-121.29238,38.6717],[-121.29235,38.66945],[-121.29309,38.6694],[-121.29287,38.66793],[-121.29233,38.66792],[-121.29232,38.66755],[-121.29275,38.66753],[-121.29279,38.66361],[-121.26304,38.66403],[-121.26319,38.66644],[-121.26217,38.66645],[-121.26228,38.69313],[-121.25805,38.69316],[-121.25805,38.69564],[-121.25367,38.6956],[-121.2537,38.69709],[-121.25301,38.69709],[-121.25297,38.69317],[-121.24437,38.69317],[-121.24444,38.71666],[-121.24358,38.71719],[-121.2428,38.71824],[-121.2904,38.7215],[-121.29042,38.7147],[-121.29116,38.71442],[-121.29119,38.71338],[-121.29202,38.71316],[-121.292,38.70942],[-121.29705,38.70944],[-121.29706,38.71023],[-121.2999,38.71006],[-121.29987,38.7088]]]},"properties":{"ZCTA5":"95610"}},{"type":"Feature","geometry":{"type":"Polygon","coordinates":[[[-121.3307,38.59768],[-121.32943,38.59594],[-121.3285,38.59603],[-121.32714,38.59497],[-121.32754,38.5942],[-121.32721,38.59264],[-121.32511,38.59034],[-121.3232,38.5842],[-121.32145,38.58454],[-121.32098,38.58237],[-121.32253,38.58203],[-121.32181,38.57975],[-121.30984,38.58567],[-121.3099,38.58139],[-121.30962,38.58041],[-121.30863,38.57907],[-121.30473,38.57554],[-121.30179,38.57357],[-121.30085,38.57358],[-121.3007,38.57285],[-121.29838,38.57127],[-121.2984,38.57397],[-121.29546,38.57404],[-121.29342,38.57464],[-121.29194,38.57553],[-121.29139,38.57462],[-121.29135,38.57383],[-121.28895,38.57381],[-121.28836,38.56708],[-121.28725,38.56666],[-121.28587,38.56679],[-121.28595,38.56724],[-121.27387,38.56782],[-121.27141,38.56924],[-121.27008,38.56786],[-121.25944,38.56793],[-121.2646,38.5754],[-121.2661,38.58742],[-121.26728,38.58961],[-121.26673,38.59509],[-121.26628,38.59558],[-121.2656,38.59565],[-121.26581,38.59991],[-121.26677,38.60237],[-121.27018,38.60685],[-121.27048,38.60887],[-121.22743,38.62521],[-121.20656,38.63624],[-121.2067,38.63644],[-121.20623,38.63669],[-121.20685,38.6368],[-121.20706,38.63726],[-121.20676,38.63805],[-121.20676,38.64045],[-121.21833,38.63716],[-121.22497,38.63606],[-121.23455,38.63243],[-121.2386,38.63243],[-121.24362,38.63326],[-121.256,38.63849],[-121.26171,38.63779],[-121.26602,38.63594],[-121.26872,38.63375],[-121.27634,38.62917],[-121.27794,38.62726],[-121.28165,38.62387],[-121.28334,38.62178],[-121.28557,38.62059],[-121.28759,38.62109],[-121.29007,38.62351],[-121.28989,38.62587],[-121.28845,38.6288],[-121.28842,38.62949],[-121.28939,38.63067],[-121.28989,38.63089],[-121.29466,38.63025],[-121.30199,38.62609],[-121.30419,38.62418],[-121.3064,38.61942],[-121.30524,38.61717],[-121.30323,38.6147],[-121.30321,38.61416],[-121.30464,38.61179],[-121.30695,38.60915],[-121.30959,38.60724],[-121.31514,38.60461],[-121.31709,38.603],[-121.3192,38.6024],[-121.31715,38.60192],[-121.31954,38.60221],[-121.32719,38.60129],[-121.32815,38.60066],[-121.3307,38.59768]]]},"properties":{"ZCTA5":"95670"}},{"type":"Feature","geometry":{"type":"Polygon","coordinates":[[[-121.27048,38.60887],[-121.27018,38.60685],[-121.26677,38.60237],[-121.26581,38.59991],[-121.2656,38.59565],[-121.26628,38.59558],[-121.26673,38.59509],[-121.26728,38.58961],[-121.2661,38.58742],[-121.26453,38.57522],[-121.25408,38.56052],[-121.25381,38.55951],[-121.25066,38.55948],[-121.25113,38.56759],[-121.24445,38.5609],[-121.24464,38.55891],[-121.24692,38.55749],[-121.24695,38.55668],[-121.24746,38.55617],[-121.24434,38.55369],[-121.24381,38.55248],[-121.24353,38.5299],[-121.24423,38.52565],[-121.24274,38.52556],[-121.24246,38.50576],[-121.2339,38.50424],[-121.22327,38.50191],[-121.20194,38.52101],[-121.18921,38.50867],[-121.17388,38.5038],[-121.16632,38.50232],[-121.16498,38.50144],[-121.16431,38.50306],[-121.16139,38.50457],[-121.1599,38.50613],[-121.16037,38.50677],[-121.15844,38.51155],[-121.1564,38.51179],[-121.15506,38.51334],[-121.15317,38.51439],[-121.15232,38.51533],[-121.15047,38.51622],[-121.14922,38.51761],[-121.14898,38.51867],[-121.14844,38.51908],[-121.14894,38.52053],[-121.14944,38.52106],[-121.14973,38.52335],[-121.14899,38.52414],[-121.14786,38.52684],[-121.14666,38.52775],[-121.14535,38.53063],[-121.1446,38.531],[-121.1432,38.57382],[-121.1433,38.60517],[-121.14296,38.61147],[-121.14716,38.61211],[-121.1485,38.61181],[-121.14947,38.61391],[-121.15048,38.61389],[-121.15035,38.63278],[-121.1517,38.63491],[-121.15415,38.63651],[-121.15551,38.63828],[-121.15646,38.64215],[-121.17411,38.64278],[-121.20038,38.63944],[-121.20267,38.63857],[-121.2067,38.63644],[-121.20656,38.63624],[-121.22808,38.62489],[-121.27048,38.60887]]]},"properties":{"ZCTA5":"95742"}},{"type":"Feature","geometry":{"type":"Polygon","coordinates":[[[-121.43553,38.74736],[-121.4335,38.73134],[-121.30883,38.72279],[-121.30772,38.72397],[-121.30725,38.72585],[-121.30445,38.72855],[-121.30241,38.7314],[-121.3018,38.73319],[-121.30205,38.73446],[-121.30286,38.7358],[-121.30733,38.73878],[-121.30878,38.74089],[-121.30665,38.74127],[-121.30667,38.74394],[-121.30911,38.74382],[-121.30936,38.75269],[-121.30998,38.75543],[-121.30993,38.75917],[-121.3075,38.75918],[-121.3075,38.7626],[-121.311,38.76257],[-121.3123,38.76422],[-121.31284,38.76599],[-121.31286,38.77254],[-121.30918,38.77255],[-121.30688,38.77303],[-121.30774,38.77482],[-121.3082,38.77735],[-121.30826,38.7954],[-121.31192,38.79537],[-121.31192,38.79256],[-121.31377,38.79178],[-121.31378,38.79948],[-121.31407,38.80044],[-121.31478,38.80126],[-121.31346,38.80239],[-121.34445,38.82453],[-121.34706,38.82476],[-121.37086,38.84134],[-121.41386,38.84153],[-121.41434,38.84151],[-121.41435,38.84067],[-121.41601,38.84135],[-121.41668,38.84078],[-121.41825,38.84051],[-121.41862,38.84121],[-121.42053,38.84239],[-121.42016,38.84257],[-121.42034,38.84352],[-121.42084,38.84323],[-121.42196,38.84331],[-121.42273,38.84354],[-121.4233,38.84415],[-121.42412,38.84392],[-121.4259,38.84464],[-121.42585,38.8442],[-121.42719,38.84459],[-121.42817,38.84429],[-121.42839,38.84395],[-121.42799,38.84362],[-121.42887,38.84292],[-121.43123,38.84357],[-121.43134,38.84291],[-121.43291,38.8419],[-121.43297,38.82432],[-121.43246,38.82432],[-121.43259,38.81061],[-121.4287,38.81062],[-121.4248,38.81176],[-121.42476,38.80251],[-121.40023,38.80245],[-121.40024,38.79548],[-121.39999,38.79436],[-121.40025,38.75895],[-121.40322,38.75936],[-121.43553,38.74736]]]},"properties":{"ZCTA5":"95747"}},{"type":"Feature","geometry":{"type":"Polygon","coordinates":[[[-121.27803,38.7838],[-121.26573,38.77752],[-121.26539,38.77707],[-121.25845,38.77389],[-121.25441,38.77288],[-121.25198,38.77185],[-121.25009,38.77394],[-121.24736,38.77396],[-121.2474,38.77034],[-121.21776,38.77039],[-121.21168,38.77361],[-121.20621,38.77444],[-121.20333,38.7765],[-121.20272,38.77759],[-121.20269,38.77875],[-121.20464,38.78222],[-121.20147,38.78227],[-121.2011,38.79383],[-121.19238,38.79386],[-121.19259,38.79657],[-121.19233,38.79805],[-121.19151,38.79997],[-121.19377,38.80034],[-121.1938,38.80162],[-121.19586,38.80193],[-121.19597,38.8033],[-121.19806,38.80331],[-121.19811,38.80421],[-121.19862,38.80424],[-121.19867,38.80498],[-121.19935,38.80495],[-121.1995,38.80535],[-121.19948,38.80589],[-121.19625,38.80594],[-121.19615,38.80992],[-121.19477,38.81044],[-121.19574,38.81066],[-121.19675,38.81041],[-121.20542,38.80309],[-121.2054,38.81029],[-121.20866,38.81036],[-121.21032,38.80935],[-121.21034,38.81023],[-121.21053,38.80975],[-121.22695,38.81033],[-121.22409,38.81918],[-121.22111,38.8246],[-121.22391,38.8246],[-121.22391,38.83239],[-121.22149,38.83253],[-121.22149,38.83222],[-121.22031,38.83223],[-121.22047,38.83941],[-121.22628,38.83922],[-121.22561,38.83893],[-121.22541,38.83797],[-121.22465,38.837],[-121.22473,38.83613],[-121.2252,38.83564],[-121.22496,38.83473],[-121.22543,38.83408],[-121.22534,38.83299],[-121.22645,38.82992],[-121.22826,38.82805],[-121.22882,38.82704],[-121.22971,38.82642],[-121.23006,38.82555],[-121.22973,38.8242],[-121.23048,38.82293],[-121.23342,38.82292],[-121.23341,38.82112],[-121.23414,38.82116],[-121.23804,38.81572],[-121.23958,38.81212],[-121.24261,38.81209],[-121.24263,38.80851],[-121.24449,38.80691],[-121.2492,38.80465],[-121.24943,38.80499],[-121.25415,38.80465],[-121.25466,38.80243],[-121.25911,38.79952],[-121.26208,38.79681],[-121.26178,38.79661],[-121.26255,38.79593],[-121.26386,38.795],[-121.265,38.79602],[-121.26862,38.79324],[-121.26923,38.79168],[-121.26916,38.78993],[-121.2684,38.78842],[-121.26628,38.786],[-121.2657,38.78363],[-121.27197,38.78377],[-121.27578,38.78527],[-121.27569,38.78465],[-121.27596,38.78437],[-121.27803,38.7838]]]},"properties":{"ZCTA5":"95677"}},{"type":"Feature","geometry":{"type":"Polygon","coordinates":[[[-121.38199,38.64104],[-121.3806,38.64052],[-121.37915,38.6407],[-121.37855,38.64113],[-121.37738,38.63927],[-121.36942,38.64175],[-121.36916,38.64123],[-121.36735,38.64067],[-121.36232,38.6405],[-121.36235,38.64099],[-121.36134,38.64192],[-121.35867,38.64213],[-121.35551,38.64302],[-121.3543,38.6429],[-121.35435,38.64168],[-121.35151,38.64168],[-121.34956,38.64256],[-121.34937,38.64334],[-121.35066,38.64358],[-121.35055,38.65366],[-121.34379,38.65358],[-121.34386,38.6527],[-121.34347,38.65237],[-121.34402,38.65174],[-121.34303,38.65112],[-121.34259,38.65121],[-121.34199,38.65326],[-121.34055,38.65423],[-121.33816,38.65519],[-121.33723,38.6562],[-121.33665,38.65605],[-121.33605,38.65541],[-121.33508,38.65524],[-121.33423,38.65387],[-121.33389,38.65403],[-121.33332,38.65344],[-121.33141,38.65284],[-121.33043,38.65349],[-121.32758,38.65395],[-121.3274,38.66125],[-121.32837,38.66126],[-121.32837,38.66162],[-121.32801,38.66161],[-121.32793,38.66405],[-121.32734,38.66404],[-121.32726,38.66882],[-121.33013,38.66886],[-121.33192,38.67051],[-121.32705,38.67388],[-121.32702,38.67478],[-121.32753,38.67511],[-121.32871,38.67509],[-121.33104,38.67348],[-121.33139,38.67254],[-121.33168,38.67285],[-121.33359,38.67216],[-121.33359,38.67249],[-121.33324,38.67367],[-121.33253,38.67431],[-121.3303,38.67483],[-121.32962,38.67543],[-121.33043,38.67663],[-121.33047,38.67773],[-121.32911,38.67843],[-121.3285,38.67915],[-121.32684,38.67957],[-121.32671,38.68798],[-121.32975,38.68518],[-121.33188,38.68626],[-121.3282,38.68963],[-121.32662,38.68962],[-121.32658,38.6921],[-121.37416,38.64827],[-121.37717,38.64612],[-121.37908,38.64376],[-121.38199,38.64104]]]},"properties":{"ZCTA5":"95841"}},{"type":"Feature","geometry":{"type":"Polygon","coordinates":[[[-121.2624,38.68402],[-121.26239,38.68285],[-121.25509,38.68285],[-121.25488,38.67863],[-121.24433,38.67865],[-121.24433,38.67808],[-121.24196,38.67809],[-121.24196,38.67138],[-121.24136,38.6714],[-121.24138,38.6702],[-121.23966,38.67022],[-121.23966,38.66952],[-121.23907,38.66952],[-121.23907,38.67004],[-121.23735,38.67005],[-121.23736,38.67048],[-121.23499,38.6701],[-121.23502,38.66766],[-121.23219,38.66789],[-121.23124,38.66773],[-121.23117,38.66733],[-121.22981,38.66727],[-121.22981,38.66769],[-121.22569,38.66749],[-121.22501,38.66764],[-121.22502,38.66848],[-121.2223,38.66853],[-121.22228,38.66814],[-121.22099,38.6682],[-121.22099,38.66857],[-121.21869,38.66856],[-121.21861,38.66399],[-121.21489,38.66438],[-121.21228,38.66616],[-121.21215,38.66493],[-121.21158,38.66555],[-121.21051,38.66549],[-121.20997,38.6649],[-121.2099,38.6643],[-121.20938,38.66411],[-121.20839,38.66433],[-121.20809,38.66405],[-121.20869,38.66358],[-121.20771,38.66351],[-121.20674,38.6614],[-121.20557,38.66067],[-121.20477,38.659],[-121.20441,38.65721],[-121.20286,38.65512],[-121.19256,38.6501],[-121.18925,38.66552],[-121.18938,38.67005],[-121.19089,38.67396],[-121.1908,38.67477],[-121.1905,38.67523],[-121.18818,38.67661],[-121.19103,38.68],[-121.19385,38.67836],[-121.19745,38.67688],[-121.19948,38.67509],[-121.20004,38.67533],[-121.20002,38.67744],[-121.19964,38.67744],[-121.19964,38.67809],[-121.2,38.67809],[-121.1999,38.68172],[-121.19757,38.68167],[-121.19747,38.6845],[-121.19644,38.6845],[-121.1964,38.68548],[-121.19277,38.68665],[-121.19263,38.69966],[-121.19438,38.69969],[-121.19369,38.71391],[-121.18873,38.71388],[-121.18857,38.71431],[-121.22586,38.7168],[-121.2428,38.71824],[-121.24358,38.71719],[-121.24444,38.71666],[-121.24437,38.69317],[-121.25297,38.69317],[-121.25301,38.69709],[-121.2537,38.69709],[-121.25367,38.6956],[-121.25805,38.69564],[-121.25805,38.69316],[-121.26228,38.69313],[-121.2624,38.68402]]]},"properties":{"ZCTA5":"95662"}},{"type":"Feature","geometry":{"type":"Polygon","coordinates":[[[-121.32166,38.54885],[-121.32103,38.5416],[-121.31872,38.53909],[-121.31795,38.53868],[-121.3166,38.53871],[-121.31355,38.54022],[-121.30729,38.53926],[-121.27536,38.53163],[-121.25268,38.5257],[-121.24423,38.52558],[-121.24353,38.5299],[-121.24381,38.55248],[-121.24434,38.55369],[-121.24746,38.55617],[-121.24695,38.55668],[-121.24692,38.55749],[-121.24464,38.55891],[-121.24445,38.5609],[-121.25113,38.56759],[-121.25066,38.55948],[-121.25381,38.55951],[-121.25408,38.56052],[-121.25944,38.56793],[-121.27008,38.56786],[-121.27141,38.56924],[-121.27387,38.56782],[-121.28595,38.56724],[-121.28587,38.56679],[-121.28708,38.56663],[-121.28836,38.56708],[-121.28895,38.57381],[-121.29135,38.57383],[-121.29139,38.57462],[-121.29194,38.57553],[-121.29342,38.57464],[-121.29546,38.57404],[-121.2984,38.57397],[-121.29838,38.57127],[-121.29796,38.57085],[-121.30847,38.566],[-121.3146,38.56282],[-121.3173,38.56101],[-121.31703,38.55084],[-121.32084,38.54858],[-121.32166,38.54885]]]},"properties":{"ZCTA5":"95655"}}]}